MIDAS 4 DEB
1 27478U 61028H   22278.50876023  .00000015  00000-0  83508-2 0  9999
2 27478  95.8633 294.3853 0289138 207.6222 314.2498  8.66670751473764
TRANSIT 5B-1 DEB
1 27479U 63038P   22279.14111297  .00058264  00000-0  17063-1 0  9990
2 27479  90.0755 347.9330 0029151 247.6535 112.1578 14.43320750 39811
DELTA 1 DEB
1 27480U 68055H   22275.04292026 -.00000360  00000-0 -74890-2 0  9999
2 27480 121.2710  19.0648 1873874 148.7306 223.9920  9.42285904311388
CZ-4 DEB
1 27482U 90081CU  22279.43025146  .00000608  00000-0  36879-3 0  9998
2 27482  98.7421 266.8803 0010200 160.5234 355.8351 14.09985227118112
M-5 DEB
1 27489U 97005G   22272.55238398  .00073250  00000-0  46004-2 0  9992
2 27489  31.4744 265.2288 4811201 343.2764 157.5656  6.00697678426011
SL-16 DEB
1 27491U 98043L   22279.28606026  .00000132  00000-0  14605-3 0  9994
2 27491  99.0991  33.3435 0205801 293.3493  64.6128 13.79490203220023
CZ-4 DEB
1 27492U 99057MM  22279.48403199  .00002036  00000-0  48741-3 0  9992
2 27492  98.5222 297.1289 0088091 212.7981 146.7728 14.52345644127023
CZ-4 DEB
1 27493U 99057MN  22279.50999400  .00001407  00000-0  40161-3 0  9990
2 27493  98.6857 289.0934 0078959 297.0802 226.1014 14.45028842155871
COSMOS 2392 DEB
1 27494U 02037H   22279.39347832 -.00000134  00000-0 -53055-3 0  9990
2 27494  63.4491 160.8656 0509808 331.7690 203.2004 12.10666005890528
EUTE HOT BIRD 13A (HB 6)
1 27499U 02038A   22279.34802667 -.00000269  00000-0  00000-0 0  9990
2 27499   5.2318  76.3788 0002155  67.9485 315.8046  0.99324501 37531
ATLAS 5 CENTAUR R/B
1 27500U 02038B   22278.93479475  .00016960  00000-0  24006-2 0  9992
2 27500  18.2773   2.3099 6519213 252.9119  30.2607  3.30684920186573
ECHOSTAR 8
1 27501U 02039A   22279.41395014 -.00000096  00000-0  00000-0 0  9994
2 27501   5.4767  75.0713 0011691  32.5095 347.3374  0.98508302 38761
SL-12 R/B(2)
1 27504U 02039B   22279.41118711  .00000093  00000-0  00000-0 0  9990
2 27504  23.5063 352.5163 5958226 210.4124  94.6411  2.01835742148308
EUTE 12 WEST A (AB 1)
1 27508U 02040A   22279.48432083 -.00000065  00000-0  00000-0 0  9994
2 27508   3.8127  83.0400 0006848   3.5399  26.8193  0.98292472 73388
METEOSAT 8 (MSG 1)
1 27509U 02040B   22279.50777774  .00000123  00000-0  00000-0 0  9991
2 27509   8.2420  50.0246 0002766 135.5667  53.8101  1.00275647 73721
ARIANE 5 R/B
1 27510U 02040C   22279.71959237 -.00000210  00000-0  41709-3 0  9994
2 27510   4.8490 183.7387 7157057  11.0327 326.6427  2.27216332166961
ARIANE 5 DEB (SYLDA)
1 27511U 02040D   22279.40563049 -.00000023  00000-0 -22723-4 0  9992
2 27511   5.2553 240.4998 7165952 254.0081 254.8695  2.25436402165378
INTELSAT 906
1 27513U 02041A   22279.57168821 -.00000002  00000-0  00000-0 0  9998
2 27513   2.3490  89.1739 0003117 115.6016  80.4069  1.00272063 73498
DRTS
1 27516U 02042B   22279.61542727 -.00000319  00000-0  00000-0 0  9999
2 27516   8.5938  51.8550 0017423 189.3721 129.3292  0.99275685 32181
H-2A R/B(2)
1 27518U 02042D   22279.43546845  .00000419  00000-0  19752-2 0  9992
2 27518  28.8727 344.8471 7143033 206.5413  84.4388  2.36652373173397
KALPANA 1 (METSAT 1)
1 27525U 02043A   22278.93495515 -.00000037  00000-0  00000-0 0  9993
2 27525  10.8106  42.2248 0008767  91.7614 264.6671  0.98337392 73205
HISPASAT 1D
1 27528U 02044A   22279.35343309 -.00000230  00000-0  00000-0 0  9992
2 27528   3.0798  85.6442 0048229  97.6580 306.5867  0.98931267 73394
PSLV DEB
1 27530U 01049MV  22279.12303545  .00201065  00000-0  14644-2 0  9991
2 27530  97.6252 155.3306 0013497 137.6853 222.5454 15.72598553131863
NADEZHDA 7
1 27534U 02046A   22279.44648793  .00000075  00000-0  64735-4 0  9991
2 27534  82.9332 248.0364 0037472 122.4664 350.9524 13.72763063  3363
SL-8 R/B
1 27535U 02046B   22279.40993854  .00000084  00000-0  72639-4 0  9991
2 27535  82.9330 230.8870 0038053  66.4750  47.6157 13.74448271  4425
CZ-4 DEB
1 27536U 99057MP  22279.45208856  .00004328  00000-0  10709-2 0  9999
2 27536  98.4701 262.7960 0034412 303.3218 208.3174 14.52160524 87752
PSLV DEB
1 27538U 01049MW  22279.52171770  .00010197  00000-0  54680-3 0  9995
2 27538  97.7597 294.0489 0038137 335.6072  24.3352 15.14544128125849
INTEGRAL
1 27540U 02048A   22277.09732703 -.00000130  00000-0  00000-0 0  9998
2 27540  78.1437  52.9532 8873797 296.8306  92.3486  0.37564673 21555
OPS 4682 DEB
1 27545U 65027BH  22276.64135362  .00000267  00000-0  94392-3 0  9997
2 27545  90.2654 336.6115 0024138 179.9523 333.3207 12.93500394980352
EUTE 25C (EUTE W5)
1 27554U 02051A   22279.45005109 -.00000367  00000-0  00000-0 0  9994
2 27554   5.7330  73.4115 0010351 302.7395 273.1786  1.00201285 35262
DELTA 4 R/B
1 27555U 02051B   22279.19206017  .00000030  00000-0  26866-3 0  9994
2 27555  13.2676 203.8284 7122049 294.3782   9.5691  2.35671000171034
ALSAT 1
1 27559U 02054A   22279.39032797  .00001481  00000-0  23836-3 0  9990
2 27559  98.1165  65.1143 0020678 276.5709  83.3144 14.72934202 64196
MOZHAYETS
1 27560U 02054B   22279.57274573  .00001143  00000-0  25552-3 0  9994
2 27560  98.4655  84.7394 0039854 233.0842 126.6708 14.58257551 54276
RUBIN 3/SL-8
1 27561U 02054C   22279.43515355  .00000681  00000-0  16336-3 0  9992
2 27561  98.5134  89.4379 0045311 327.2231  32.6157 14.56166989 54072
TDRS 10
1 27566U 02055A   22279.57641660  .00000078  00000-0  00000-0 0  9990
2 27566   8.4039  49.3197 0004450 338.1485  24.2430  1.00276969 72701
COSMOS 1176 COOLANT
1 27568U 80034E   22275.13672473  .00001011  00000-0  63090-3 0  9998
2 27568  64.8226 215.1978 0056311 278.3420  81.1269 14.08828800489943
COSMOS 1249 COOLANT
1 27569U 81021R   22263.42862515  .00000088  00000-0  13907-3 0  9998
2 27569  64.9593 275.2325 0056464 321.8835  37.8241 13.91494991464007
COSMOS 1249 COOLANT
1 27570U 81021S   22274.61797393  .00000161  00000-0  19606-3 0  9998
2 27570  64.9595 244.8431 0058088 317.0759  42.5778 13.91530651459621
COSMOS 1249 COOLANT
1 27571U 81021T   22254.58399599  .00000071  00000-0  12604-3 0  9990
2 27571  64.9626 311.9111 0058177 319.1180  40.5527 13.91294873469565
COSMOS 1579 COOLANT
1 27573U 84069X   22277.41408029  .00000357  00000-0  35150-3 0  9991
2 27573  65.0507 163.4428 0031556 115.5183  59.0763 13.91416142 11038
DELTA 1 DEB
1 27574U 75052LC  22278.98434406  .00056971  00000-0  23930-1 0  9999
2 27574  99.8146 100.5261 0570251 311.3366  44.0021 13.62714003397964
DELTA 1 DEB
1 27575U 77065GE  22279.76307219  .00002572  00000-0  11531-2 0  9997
2 27575  29.1191  75.7600 0507829  23.2308 358.5887 13.68656905205230
DELTA 1 DEB
1 27576U 75052LD  22279.09668604  .00000019  00000-0  71845-4 0  9996
2 27576  99.4569 143.6470 0116088 235.5014 280.6572 13.67873440575820
DELTA 1 DEB
1 27577U 75052LE  22279.41976344  .00000919  00000-0  15956-2 0  9994
2 27577  99.0903 246.6002 0076245 182.9728 330.1460 13.45186858355886
DELTA 1 DEB
1 27578U 75052LF  22279.41178127  .00001015  00000-0  11477-2 0  9990
2 27578  99.6669 158.2818 0043312  81.0182  95.7705 13.72672197 73471
PSLV DEB
1 27580U 01049MY  22279.69883176  .00001433  00000-0  22469-3 0  9993
2 27580  98.2769 261.9191 0045627 317.1862  42.5795 14.73648793 87443
PSLV DEB
1 27582U 01049NA  22279.35165921  .00005995  00000-0  75671-3 0  9999
2 27582  98.3380 242.6265 0053061 119.6701 240.9808 14.81318795 91428
PSLV DEB
1 27583U 01049NB  22279.36013654  .00089097  00000-0  23503-2 0  9997
2 27583  97.5167 313.9689 0007466  10.5403 349.5997 15.38116635106313
PSLV DEB
1 27585U 01049ND  22279.64364722  .00003522  00000-0  50361-3 0  9997
2 27585  98.2358 244.0890 0060015 314.4722  45.1587 14.76100394102206
PSLV DEB
1 27586U 01049NE  22279.42364052  .00021539  00000-0  77733-3 0  9990
2 27586  97.3640 262.5946 0038667  34.9341 325.4424 15.27800163115775
ARIANE 2 DEB
1 27593U 88040C   22279.39104682  .00000281  00000-0  12651-2 0  9999
2 27593   6.9966 158.5326 7176255 134.5760 312.8455  2.29036080168781
ARIANE 2 DEB
1 27594U 88040D   22279.07727973  .00000442  00000-0  28984-2 0  9994
2 27594   7.5721 116.9975 7148037 213.1852  69.0030  2.32578052169919
ARIANE 2 DEB
1 27595U 88040E   22279.31827641  .00000279  00000-0  12315-2 0  9994
2 27595   6.9678 160.3502 7178596 131.3195 317.1023  2.28824280168669
ARIANE 1 DEB
1 27596U 86019VN  22279.50116613  .00002135  00000-0  62604-3 0  9990
2 27596  98.1377 275.1268 0045733 135.7403 355.7874 14.44216660418626
ADEOS 2
1 27597U 02056A   22279.77128787  .00000383  00000-0  17321-3 0  9993
2 27597  98.6154 222.0140 0001982  65.5217 294.6171 14.27656359 31835
FEDSAT
1 27598U 02056B   22279.76131081  .00000216  00000-0  10311-3 0  9991
2 27598  98.6702 224.5060 0008478 324.4193  35.6422 14.28827190 33007
WEOS
1 27599U 02056C   22279.46728127  .00000311  00000-0  13850-3 0  9999
2 27599  98.6318 222.9003 0009060 310.6788  49.3606 14.29641065 33412
MICRO LABSAT
1 27600U 02056D   22279.53048800  .00000249  00000-0  11399-3 0  9999
2 27600  98.6285 222.3071 0009958 306.5793  53.4472 14.29791940 33609
H-2A R/B
1 27601U 02056E   22279.80671937  .00000423  00000-0  16784-3 0  9990
2 27601  98.1812 280.1385 0070820 289.5413 244.8863 14.32122151 35109
ARIANE 2 DEB
1 27602U 89006AC  22277.47985144 -.00000792  00000-0 -40522-1 0  9996
2 27602   7.4162 109.7224 7049096  45.4065 272.7229  2.25129003172570
NSS 6
1 27603U 02057A   22279.57798946  .00000091  00000-0  00000-0 0  9999
2 27603   1.8866  90.3061 0003494 106.0173 217.4937  1.00268745 72506
ARIANE 44L R/B
1 27604U 02057B   22278.87587151  .00002502  00000-0  13744-2 0  9996
2 27604   7.0616 131.7184 7154515 306.7975   6.9953  2.41342424166349
RUBIN 2
1 27605U 02058A   22279.47283091  .00000999  00000-0  15920-3 0  9998
2 27605  64.5547 309.5053 0082801 273.6963  85.4673 14.75505779 65175
LATINSAT B
1 27606U 02058B   22279.76076719  .00001171  00000-0  19294-3 0  9999
2 27606  64.5565  51.7781 0091329 280.1831  78.8979 14.72711699 63138
